IRIDIUM 57              
1 25273U 98019B   24347.67441909  .00000650  00000+0  21858-3 0  9993
2 25273  86.3979 223.3329 0002029  82.1688 277.9739 14.35632222398029
IRIDIUM 63              
1 25286U 98021B   24347.55594021  .00000866  00000+0  29020-3 0  9999
2 25286  86.3998 160.3756 0002065  93.8175 266.3258 14.36241778397051
IRIDIUM 69              
1 25319U 98026A   24347.92832343  .00000802  00000+0  24549-3 0  9995
2 25319  86.3997 174.0527 0000517 321.9026  38.2137 14.40584352396240
IRIDIUM 71              
1 25320U 98026B   24347.54566601  .00000817  00000+0  24927-3 0  9992
2 25320  86.3993 168.9452 0002517  33.5675 326.5683 14.40822813396713
IRIDIUM 73              
1 25344U 98032C   24347.85997710  .00001341  00000+0  33252-3 0  9992
2 25344  86.4417 125.9452 0001361  93.1579 266.9782 14.51230974403534
IRIDIUM 82              
1 25467U 98051A   24347.64772619  .00019493  00000+0  77332-3 0  9999
2 25467  86.3743 200.5177 0104736 280.3407  78.6042 15.20213132395503
